{
  "type": "FeatureCollection",
  "features": [
    {
      "type": "Feature",
      "properties": {
        "norad_id": 66464,
        "name": "STARLINK-35435",
        "group": "last-30-days",
        "lat": 40.76622007704224,
        "lon": -164.58008061096052,
        "alt_km": 438.9536172030039,
        "timestamp": "2025-12-10T16:57:10.415080+00:00",
        "meta_object_name": "STARLINK-35435",
        "meta_object_id": "2025-262J",
        "meta_epoch": "2025-12-10T12:00:02.998944",
        "meta_mean_motion": 15.40652008,
        "meta_eccentricity": 0.0001944,
        "meta_inclination": 43.0004,
        "meta_ra_of_asc_node": 84.3053,
        "meta_arg_of_pericenter": 289.0517,
        "meta_mean_anomaly": 111.8497,
        "meta_ephemeris_type": 0,
        "meta_classification_type": "U",
        "meta_norad_cat_id": 66464,
        "meta_element_set_no": 999,
        "meta_rev_at_epoch": 527,
        "meta_bstar": 0.001405,
        "meta_mean_motion_dot": 0.00058746,
        "meta_mean_motion_ddot": 0,
        "tle_line1": "1 66464U 25262J   25344.50003471  .00058746  00000+0  14050-2 0  9992",
        "tle_line2": "2 66464  43.0004  84.3053 0001944 289.0517 111.8497 15.40652008  5278"
      },
      "geometry": {
        "type": "Point",
        "coordinates": [
          -164.58008061096052,
          40.76622007704224
        ]
      }
    },
    {
      "type": "Feature",
      "properties": {
        "norad_id": 66465,
        "name": "STARLINK-35448",
        "group": "last-30-days",
        "lat": 24.946899823357523,
        "lon": -126.91542447038364,
        "alt_km": 433.79253700504523,
        "timestamp": "2025-12-10T16:57:10.415090+00:00",
        "meta_object_name": "STARLINK-35448",
        "meta_object_id": "2025-262K",
        "meta_epoch": "2025-12-10T12:00:02.998944",
        "meta_mean_motion": 15.44023976,
        "meta_eccentricity": 0.0001613,
        "meta_inclination": 43.0004,
        "meta_ra_of_asc_node": 84.2256,
        "meta_arg_of_pericenter": 278.8715,
        "meta_mean_anomaly": 154.9187,
        "meta_ephemeris_type": 0,
        "meta_classification_type": "U",
        "meta_norad_cat_id": 66465,
        "meta_element_set_no": 999,
        "meta_rev_at_epoch": 527,
        "meta_bstar": -0.04841,
        "meta_mean_motion_dot": -0.02014022,
        "meta_mean_motion_ddot": 0,
        "tle_line1": "1 66465U 25262K   25344.50003471 -.02014022  00000+0 -48410-1 0  9992",
        "tle_line2": "2 66465  43.0004  84.2256 0001613 278.8715 154.9187 15.44023976  5276"
      },
      "geometry": {
        "type": "Point",
        "coordinates": [
          -126.91542447038364,
          24.946899823357523
        ]
      }
    },
    {
      "type": "Feature",
      "properties": {
        "norad_id": 66466,
        "name": "STARLINK-35388",
        "group": "last-30-days",
        "lat": 19.328419041265136,
        "lon": -119.1039367705106,
        "alt_km": 430.4805832446036,
        "timestamp": "2025-12-10T16:57:10.415100+00:00",
        "meta_object_name": "STARLINK-35388",
        "meta_object_id": "2025-262L",
        "meta_epoch": "2025-12-10T12:00:02.998944",
        "meta_mean_motion": 15.45385944,
        "meta_eccentricity": 0.000135,
        "meta_inclination": 43.0004,
        "meta_ra_of_asc_node": 84.2037,
        "meta_arg_of_pericenter": 275.9912,
        "meta_mean_anomaly": 165.9633,
        "meta_ephemeris_type": 0,
        "meta_classification_type": "U",
        "meta_norad_cat_id": 66466,
        "meta_element_set_no": 999,
        "meta_rev_at_epoch": 527,
        "meta_bstar": -0.047826,
        "meta_mean_motion_dot": -0.02077161,
        "meta_mean_motion_ddot": 0,
        "tle_line1": "1 66466U 25262L   25344.50003471 -.02077161  00000+0 -47826-1 0  9996",
        "tle_line2": "2 66466  43.0004  84.2037 0001350 275.9912 165.9633 15.45385944  5274"
      },
      "geometry": {
        "type": "Point",
        "coordinates": [
          -119.1039367705106,
          19.328419041265136
        ]
      }
    },
    {
      "type": "Feature",
      "properties": {
        "norad_id": 66467,
        "name": "STARLINK-35682",
        "group": "last-30-days",
        "lat": 30.85410616145882,
        "lon": -136.81573465363067,
        "alt_km": 436.61193090656434,
        "timestamp": "2025-12-10T16:57:10.415110+00:00",
        "meta_object_name": "STARLINK-35682",
        "meta_object_id": "2025-262M",
        "meta_epoch": "2025-12-10T12:00:02.998944",
        "meta_mean_motion": 15.42780871,
        "meta_eccentricity": 0.0001125,
        "meta_inclination": 43.0005,
        "meta_ra_of_asc_node": 84.2486,
        "meta_arg_of_pericenter": 286.616,
        "meta_mean_anomaly": 137.5631,
        "meta_ephemeris_type": 0,
        "meta_classification_type": "U",
        "meta_norad_cat_id": 66467,
        "meta_element_set_no": 999,
        "meta_rev_at_epoch": 527,
        "meta_bstar": -0.054538,
        "meta_mean_motion_dot": -0.02155517,
        "meta_mean_motion_ddot": 0,
        "tle_line1": "1 66467U 25262M   25344.50003471 -.02155517  00000+0 -54538-1 0  9997",
        "tle_line2": "2 66467  43.0005  84.2486 0001125 286.6160 137.5631 15.42780871  5276"
      },
      "geometry": {
        "type": "Point",
        "coordinates": [
          -136.81573465363067,
          30.85410616145882
        ]
      }
    },
    {
      "type": "Feature",
      "properties": {
        "norad_id": 66468,
        "name": "STARLINK-35331",
        "group": "last-30-days",
        "lat": 9.249837330568418,
        "lon": -107.09888323307906,
        "alt_km": 415.673114730208,
        "timestamp": "2025-12-10T16:57:10.415123+00:00",
        "meta_object_name": "STARLINK-35331",
        "meta_object_id": "2025-262N",
        "meta_epoch": "2025-12-09T18:35:23.867520",
        "meta_mean_motion": 15.50297909,
        "meta_eccentricity": 0.00010504,
        "meta_inclination": 43.001,
        "meta_ra_of_asc_node": 88.4141,
        "meta_arg_of_pericenter": 308.1089,
        "meta_mean_anomaly": 51.9676,
        "meta_ephemeris_type": 0,
        "meta_classification_type": "U",
        "meta_norad_cat_id": 66468,
        "meta_element_set_no": 999,
        "meta_rev_at_epoch": 510,
        "meta_bstar": -0.0022109145,
        "meta_mean_motion_dot": -0.00126691,
        "meta_mean_motion_ddot": 0,
        "tle_line1": "1 66468U 25262N   25343.77458180 -.00126691  00000+0 -22109-2 0  9996",
        "tle_line2": "2 66468  43.0010  88.4141 0001050 308.1089  51.9676 15.50297909  5108"
      },
      "geometry": {
        "type": "Point",
        "coordinates": [
          -107.09888323307906,
          9.249837330568418
        ]
      }
    },
    {
      "type": "Feature",
      "properties": {
        "norad_id": 66469,
        "name": "STARLINK-35451",
        "group": "last-30-days",
        "lat": 4.283671718060291,
        "lon": -101.66279632307992,
        "alt_km": 414.12736031861004,
        "timestamp": "2025-12-10T16:57:10.415133+00:00",
        "meta_object_name": "STARLINK-35451",
        "meta_object_id": "2025-262P",
        "meta_epoch": "2025-12-10T11:34:11.292096",
        "meta_mean_motion": 15.50604554,
        "meta_eccentricity": 0.0001598,
        "meta_inclination": 43.0005,
        "meta_ra_of_asc_node": 84.26,
        "meta_arg_of_pericenter": 267.6655,
        "meta_mean_anomaly": 92.4022,
        "meta_ephemeris_type": 0,
        "meta_classification_type": "U",
        "meta_norad_cat_id": 66469,
        "meta_element_set_no": 999,
        "meta_rev_at_epoch": 521,
        "meta_bstar": 0.0017369,
        "meta_mean_motion_dot": 0.00102999,
        "meta_mean_motion_ddot": 0,
        "tle_line1": "1 66469U 25262P   25344.48207514  .00102999  00000+0  17369-2 0  9994",
        "tle_line2": "2 66469  43.0005  84.2600 0001598 267.6655  92.4022 15.50604554  5217"
      },
      "geometry": {
        "type": "Point",
        "coordinates": [
          -101.66279632307992,
          4.283671718060291
        ]
      }
    },
    {
      "type": "Feature",
      "properties": {
        "norad_id": 66470,
        "name": "STARLINK-35655",
        "group": "last-30-days",
        "lat": 10.142342253165664,
        "lon": -108.0951355633886,
        "alt_km": 424.01282425250247,
        "timestamp": "2025-12-10T16:57:10.415143+00:00",
        "meta_object_name": "STARLINK-35655",
        "meta_object_id": "2025-262Q",
        "meta_epoch": "2025-12-10T12:00:02.998944",
        "meta_mean_motion": 15.48058863,
        "meta_eccentricity": 0.00013,
        "meta_inclination": 43.0003,
        "meta_ra_of_asc_node": 84.1744,
        "meta_arg_of_pericenter": 286.1017,
        "meta_mean_anomaly": 167.9327,
        "meta_ephemeris_type": 0,
        "meta_classification_type": "U",
        "meta_norad_cat_id": 66470,
        "meta_element_set_no": 999,
        "meta_rev_at_epoch": 527,
        "meta_bstar": -0.044147,
        "meta_mean_motion_dot": -0.02101991,
        "meta_mean_motion_ddot": 0,
        "tle_line1": "1 66470U 25262Q   25344.50003471 -.02101991  00000+0 -44147-1 0  9993",
        "tle_line2": "2 66470  43.0003  84.1744 0001300 286.1017 167.9327 15.48058863  5279"
      },
      "geometry": {
        "type": "Point",
        "coordinates": [
          -108.0951355633886,
          10.142342253165664
        ]
      }
    }
  ]
}